     2.10           G: GLONASS NAV DATA                     RINEX VERSION / TYPE
teqc  2015Jun23                         20210509 02:25:48UTCPGM / RUN BY / DATE
Linux 2.4.21-27.ELsmp|Opteron|gcc -static|Linux x86_64|=+   COMMENT
  2021     4    15    9.313225746155D-09                    CORR TO SYSTEM TIME
                                                            END OF HEADER
 7 21  4 16  8 45  0.0-4.253536462784D-05 0.000000000000D+00 3.060000000000D+04
   -2.341030078125D+04-3.633956909180D-01 1.862645149231D-09 0.000000000000D+00
    9.665214355469D+03 2.971925735474D-01 0.000000000000D+00 5.000000000000D+00
   -3.175412109375D+03 3.532346725464D+00 9.313225746155D-10 0.000000000000D+00
 8 21  4 16  8 45  0.0-5.855690687895D-05-0.000000000000D+00 3.060000000000D+04
   -1.264566308594D+04-2.269266128540D+00 9.313225746155D-10 0.000000000000D+00
    1.326054589844D+04 8.901233673096D-01-0.000000000000D+00 6.000000000000D+00
   -1.769441113281D+04 2.279331207275D+00 1.862645149231D-09 0.000000000000D+00
22 21  4 16  8 45  0.0-1.080604270101D-04-1.818989403546D-12 3.060000000000D+04
   -1.397568359375D+02-2.193781852722D+00 0.000000000000D+00 0.000000000000D+00
    1.298504296875D+04-2.066940307617D+00 3.725290298462D-09-3.000000000000D+00
    2.191806738281D+04 1.218997955322D+00-0.000000000000D+00 0.000000000000D+00
23 21  4 16  8 45  0.0 3.789095208049D-04 1.818989403546D-12 3.060000000000D+04
    1.672234130859D+04-4.313287734985D-01-0.000000000000D+00 0.000000000000D+00
    1.836920019531D+04-7.072916030884D-01 3.725290298462D-09 3.000000000000D+00
    5.768167968750D+03 3.498115539551D+00 9.313225746155D-10 0.000000000000D+00
 1 21  4 16  8 45  0.0 7.795542478561D-05 0.000000000000D+00 3.165000000000D+04
    3.133113281250D+03-2.948613166809D+00 0.000000000000D+00 0.000000000000D+00
    1.065039892578D+04 1.092315673828D+00-0.000000000000D+00 1.000000000000D+00
   -2.295812304688D+04 1.057863235474D-01 2.793967723846D-09 0.000000000000D+00
10 21  4 16  9 15  0.0-6.801355630159D-05 0.000000000000D+00 3.240000000000D+04
   -1.081762207031D+04 1.859531402588D-01 0.000000000000D+00 0.000000000000D+00
    7.236498046875D+03-2.996726989746D+00-1.862645149231D-09-7.000000000000D+00
   -2.196319189453D+04-1.072924613953D+00 1.862645149231D-09 0.000000000000D+00
 1 21  4 16  9 15  0.0 7.795635610819D-05 0.000000000000D+00 3.240000000000D+04
   -1.928650390625D+03-2.632059097290D+00 0.000000000000D+00 0.000000000000D+00
    1.294897363281D+04 1.434806823730D+00-0.000000000000D+00 1.000000000000D+00
   -2.188204736328D+04 1.082128524780D+00 2.793967723846D-09 0.000000000000D+00
 7 21  4 16  9 15  0.0-4.253443330526D-05 0.000000000000D+00 3.240000000000D+04
   -2.330719970703D+04 4.620056152344D-01 1.862645149231D-09 0.000000000000D+00
    9.923181640625D+03-4.814720153809D-02 0.000000000000D+00 5.000000000000D+00
    3.223349121094D+03 3.531335830688D+00 0.000000000000D+00 0.000000000000D+00
 8 21  4 16  9 15  0.0-5.855783820152D-05-0.000000000000D+00 3.240000000000D+04
   -1.609002001953D+04-1.537354469299D+00 9.313225746155D-10 0.000000000000D+00
    1.492351074219D+04 9.162473678589D-01-0.000000000000D+00 6.000000000000D+00
   -1.295824462891D+04 2.948627471924D+00 1.862645149231D-09 0.000000000000D+00
12 21  4 16  9 15  0.0 2.212766557932D-04 3.637978807092D-12 3.240000000000D+04
    2.397412109375D+03 9.507751464844D-02 9.313225746155D-10 0.000000000000D+00
    2.418914208984D+04 1.069740295410D+00 3.725290298462D-09-1.000000000000D+00
    7.791764648438D+03-3.357300758362D+00 1.862645149231D-09 0.000000000000D+00
23 21  4 16  9 15  0.0 3.789141774178D-04 1.818989403546D-12 3.240000000000D+04
    1.524815039062D+04-1.214970588684D+00 0.000000000000D+00 0.000000000000D+00
    1.671652832031D+04-1.085329055786D+00 3.725290298462D-09 3.000000000000D+00
    1.176014208984D+04 3.116351127625D+00 9.313225746155D-10 0.000000000000D+00
 1 21  4 16  9 45  0.0 7.795728743076D-05 0.000000000000D+00 3.420000000000D+04
   -6.207397949219D+03-2.091777801514D+00 9.313225746155D-10 0.000000000000D+00
    1.569484228516D+04 1.576966285706D+00-0.000000000000D+00 1.000000000000D+00
   -1.911268798828D+04 1.974972724915D+00 1.862645149231D-09 0.000000000000D+00
 7 21  4 16  9 45  0.0-4.253443330526D-05 0.000000000000D+00 3.420000000000D+04
   -2.183521093750D+04 1.141404151917D+00 1.862645149231D-09 0.000000000000D+00
    9.373982421875D+03-5.887479782104D-01-0.000000000000D+00 5.000000000000D+00
    9.373743652344D+03 3.258269309998D+00-0.000000000000D+00 0.000000000000D+00
 8 21  4 16  9 45  0.0-5.855876952410D-05-0.000000000000D+00 3.420000000000D+04
   -1.814073095703D+04-7.399816513062D-01 1.862645149231D-09 0.000000000000D+00
    1.640413671875D+04 6.857385635376D-01-0.000000000000D+00 6.000000000000D+00
   -7.217379882812D+03 3.388491630554D+00 9.313225746155D-10 0.000000000000D+00
12 21  4 16  9 45  0.0 2.212822437286D-04 3.637978807092D-12 3.420000000000D+04
    2.678630859375D+03 1.773080825806D-01 1.862645149231D-09 0.000000000000D+00
    2.533452099609D+04 1.927652359009D-01 2.793967723846D-09-1.000000000000D+00
    1.525882324219D+03-3.559678077698D+00 1.862645149231D-09 0.000000000000D+00
23 21  4 16  9 45  0.0 3.789179027081D-04 1.818989403546D-12 3.420000000000D+04
    1.235422802734D+04-1.988888740540D+00 9.313225746155D-10 0.000000000000D+00
    1.462585253906D+04-1.191909790039D+00 3.725290298462D-09 3.000000000000D+00
    1.684191845703D+04 2.493361473083D+00 0.000000000000D+00 0.000000000000D+00
13 21  4 16  9 45  0.0-5.353335291147D-05-0.000000000000D+00 3.504000000000D+04
    9.568865722656D+03 3.077526092529D-01 9.313225746155D-10 0.000000000000D+00
    1.644450781250D+04 2.309833526611D+00 3.725290298462D-09-2.000000000000D+00
    1.697106884766D+04-2.408660888672D+00 0.000000000000D+00 0.000000000000D+00
 1 21  4 16 10 15  0.0 7.795821875334D-05 0.000000000000D+00 3.600000000000D+04
   -9.380223144531D+03-1.420700073242D+00 9.313225746155D-10 0.000000000000D+00
    1.847171679688D+04 1.463342666626D+00-0.000000000000D+00 1.000000000000D+00
   -1.486400195312D+04 2.715120315552D+00 1.862645149231D-09 0.000000000000D+00
 7 21  4 16 10 15  0.0-4.253257066011D-05 0.000000000000D+00 3.600000000000D+04
   -1.933536914062D+04 1.593407630920D+00 9.313225746155D-10 0.000000000000D+00
    7.735122558594D+03-1.242841720581D+00-0.000000000000D+00 5.000000000000D+00
    1.480240380859D+04 2.734651565552D+00-9.313225746155D-10 0.000000000000D+00
 8 21  4 16 10 15  0.0-5.855876952410D-05-0.000000000000D+00 3.600000000000D+04
   -1.878393164062D+04 7.848739624023D-03 1.862645149231D-09 0.000000000000D+00
    1.724463720703D+04 2.108163833618D-01-0.000000000000D+00 6.000000000000D+00
   -9.177626953125D+02 3.565571784973D+00 0.000000000000D+00 0.000000000000D+00
12 21  4 16 10 15  0.0 2.212887629867D-04 3.637978807092D-12 3.600000000000D+04
    2.889236816406D+03 1.692295074463D-02 1.862645149231D-09 0.000000000000D+00
    2.488189013672D+04-6.862258911133D-01 1.862645149231D-09-1.000000000000D+00
   -4.857758789062D+03-3.487238883972D+00 2.793967723846D-09 0.000000000000D+00
13 21  4 16 10 15  0.0-5.353428423405D-05-0.000000000000D+00 3.600000000000D+04
    1.031761376953D+04 4.881038665771D-01 1.862645149231D-09 0.000000000000D+00
    1.997313916016D+04 1.583132743835D+00 3.725290298462D-09-2.000000000000D+00
    1.203458886719D+04-3.040614128113D+00 9.313225746155D-10 0.000000000000D+00
23 21  4 16 10 15  0.0 3.789225593209D-04 1.818989403546D-12 3.600000000000D+04
    8.164640625000D+03-2.635890960693D+00 1.862645149231D-09 0.000000000000D+00
    1.258253320312D+04-1.038539886475D+00 3.725290298462D-09 3.000000000000D+00
    2.062016455078D+04 1.677411079407D+00-0.000000000000D+00 0.000000000000D+00
 1 21  4 16 10 45  0.0 7.795915007591D-05 0.000000000000D+00 3.780000000000D+04
   -1.130945996094D+04-7.288179397583D-01 9.313225746155D-10 0.000000000000D+00
    2.080062695312D+04 1.080845832825D+00-9.313225746155D-10 1.000000000000D+00
   -9.464650390625D+03 3.245159149170D+00 9.313225746155D-10 0.000000000000D+00
 8 21  4 16 10 45  0.0-5.855876952410D-05 0.000000000000D+00 3.780000000000D+04
   -1.820439306641D+04 6.034660339355D-01 1.862645149231D-09 0.000000000000D+00
    1.704907812500D+04-4.529323577881D-01-0.000000000000D+00 6.000000000000D+00
    5.452912597656D+03 3.467094421387D+00-0.000000000000D+00 0.000000000000D+00
12 21  4 16 10 45  0.0 2.212943509221D-04 2.728484105319D-12 3.780000000000D+04
    2.607679687500D+03-3.618593215942D-01 1.862645149231D-09 0.000000000000D+00
    2.293170849609D+04-1.453176498413D+00 0.000000000000D+00-1.000000000000D+00
   -1.086601708984D+04-3.145233154297D+00 2.793967723846D-09 0.000000000000D+00
13 21  4 16 10 45  0.0-5.353614687920D-05-0.000000000000D+00 3.780000000000D+04
    1.118349218750D+04 4.323272705078D-01 2.793967723846D-09 0.000000000000D+00
    2.207616162109D+04 7.442445755005D-01 2.793967723846D-09-2.000000000000D+00
    6.166567871094D+03-3.437002182007D+00 1.862645149231D-09 0.000000000000D+00
 2 21  4 16 10 45  0.0 4.749959334731D-04 9.094947017729D-13 3.873000000000D+04
    4.483530761719D+03-2.009621620178D+00 0.000000000000D+00 0.000000000000D+00
    1.103523925781D+04 2.354397773743D+00-9.313225746155D-10-4.000000000000D+00
   -2.251679687500D+04 7.468175888062D-01 2.793967723846D-09 0.000000000000D+00
 1 21  4 16 11 15  0.0 7.796008139849D-05 0.000000000000D+00 3.960000000000D+04
   -1.205715283203D+04-1.249256134033D-01 9.313225746155D-10 0.000000000000D+00
    2.221991894531D+04 4.616584777832D-01-9.313225746155D-10 1.000000000000D+00
   -3.332563476562D+03 3.523968696594D+00 9.313225746155D-10 0.000000000000D+00
 2 21  4 16 11 15  0.0 4.749977961183D-04 9.094947017729D-13 3.960000000000D+04
    1.327239257812D+03-1.478870391846D+00 0.000000000000D+00 0.000000000000D+00
    1.532926269531D+04 2.369337081909D+00-9.313225746155D-10-4.000000000000D+00
   -2.031646777344D+04 1.681853294373D+00 2.793967723846D-09 0.000000000000D+00
